EUTELSAT 21B            
1 38992U 12062B   25229.54029708  .00000122  00000+0  00000+0 0  9990
2 38992   0.0692   8.6832 0003124 132.2813  41.2863  1.00273157 46782
EUTELSAT 70B            
1 39020U 12069A   25229.54991712 -.00000052  00000+0  00000+0 0  9996
2 39020   0.0650  10.9325 0003558 136.0416  87.6522  1.00271992 46460
EUTELSAT 117 WEST A     
1 39122U 13012A   25229.56989205 -.00000021  00000+0  00000+0 0  9990
2 39122   0.0142  73.5506 0002824  86.0722 254.9106  1.00270889 45385
EUTELSAT 7B             
1 39163U 13022A   25229.32321152  .00000040  00000+0  00000+0 0  9991
2 39163   0.0718 337.3417 0001941  69.2241  42.7130  1.00270738 44910
EXPRESS-AT1             
1 39612U 14010A   25229.47574897  .00000070  00000+0  00000+0 0  9993
2 39612   0.0091 130.8970 0000219 168.6925 253.7787  1.00273666 41779
EXPRESS-AT2             
1 39613U 14010B   25229.46268106 -.00000290  00000+0  00000+0 0  9991
2 39613   0.0085 132.4246 0000149 218.8687 281.1963  1.00270951 41452
EUTELSAT 3B             
1 39773U 14030A   25229.39375848  .00000012  00000+0  00000+0 0  9995
2 39773   0.0643  10.1835 0004112 142.6148 318.0520  1.00272013 41174
EUTELSAT 115 WEST B     
1 40425U 15010B   25229.44186214 -.00000033  00000+0  00000+0 0  9997
2 40425   0.0031 339.2675 0000166  72.4341 318.5182  1.00272234 38347
